SL-16 R/B               
1 25407U 98045B   26077.47293493  .00000152  00000+0  10103-3 0  9992
2 25407  71.0120 163.1046 0007342 354.2052   5.8985 14.16194741428343
ISS (ZARYA)             
1 25544U 98067A   26077.35508505  .00007746  00000+0  15190-3 0  9995
2 25544  51.6340  29.5200 0006241 204.1942 155.8754 15.48355497557670
CZ-4B R/B               
1 25732U 99025C   26077.57467984  .00000040  00000+0  40102-4 0  9990
2 25732  98.6607 121.6450 0036311 320.6960 203.2121 14.18267128389423
OKEAN-O                 
1 25860U 99039A   26077.43906835  .00000646  00000+0  91542-4 0  9991
2 25860  97.9423 137.2409 0001027  75.1697 284.9629 14.80349723435685
SL-16 R/B               
1 25861U 99039B   26077.41070098  .00000547  00000+0  76110-4 0  9997
2 25861  97.9946 136.4936 0013821 225.4245 134.5840 14.81743581438157
DELTA 2 R/B             
1 25876U 99041E   26077.50312749  .00000690  00000+0  15028-3 0  9997
2 25876  51.7610 266.0749 0502580  14.4288 347.0412 14.11862228364279
HELIOS 1B               
1 25977U 99064A   26077.45739084  .00001593  00000+0  18112-3 0  9993
2 25977  98.1687 339.9581 0002271  62.7111 297.4335 14.87733386686563
TERRA                   
1 25994U 99068A   26077.49052036  .00000382  00000+0  86858-4 0  9993
2 25994  97.9575 130.5883 0003212 132.3864 336.2440 14.61023976396364
SL-16 R/B               
1 26070U 00006B   26077.41998397 -.00000149  00000+0 -51578-4 0  9998
2 26070  71.0003  79.4786 0016290 176.6543 183.4692 14.15823842349792
TITAN 4B R/B            
1 26474U 00047B   26077.44233181  .00003708  00000+0  23417-3 0  9999
2 26474  67.9911  15.8966 0038953  25.0077 335.2948 15.09648496394239
ENVISAT                 
1 27386U 02009A   26077.45231789  .00000106  00000+0  48066-4 0  9992
2 27386  98.3743  30.8417 0001304  82.3600  29.7744 14.39040081260430
IDEFIX & ARIANE 42P R/B 
1 27422U 02021B   26077.30575998  .00000252  00000+0  11211-3 0  9997
2 27422  98.5880  15.8095 0012074 156.9215 203.2513 14.31032071245254
