CCSDS_OMM_VERS = 2.0
CREATION_DATE  = 
ORIGINATOR     = 

OBJECT_NAME    = SL-16 R/B
OBJECT_ID      = 1998-045B
CENTER_NAME    = EARTH
REF_FRAME      = TEME
TIME_SYSTEM    = UTC
MEAN_ELEMENT_THEORY = SGP/SGP4

EPOCH          = 2026-03-18T11:21:01.577952
MEAN_MOTION    = 14.16194741
ECCENTRICITY   = .0007342
INCLINATION    = 71.0120
RA_OF_ASC_NODE = 163.1046
ARG_OF_PERICENTER = 354.2052
MEAN_ANOMALY   = 5.8985

EPHEMERIS_TYPE = 0
CLASSIFICATION_TYPE = U
NORAD_CAT_ID   = 25407
ELEMENT_SET_NO = 999
REV_AT_EPOCH   = 42834
BSTAR          = .10103E-3
MEAN_MOTION_DOT = .152E-5
MEAN_MOTION_DDOT = 0

CCSDS_OMM_VERS = 2.0
CREATION_DATE  = 
ORIGINATOR     = 

OBJECT_NAME    = ISS (ZARYA)
OBJECT_ID      = 1998-067A
CENTER_NAME    = EARTH
REF_FRAME      = TEME
TIME_SYSTEM    = UTC
MEAN_ELEMENT_THEORY = SGP/SGP4

EPOCH          = 2026-03-18T08:31:19.348320
MEAN_MOTION    = 15.48355497
ECCENTRICITY   = .0006241
INCLINATION    = 51.6340
RA_OF_ASC_NODE = 29.5200
ARG_OF_PERICENTER = 204.1942
MEAN_ANOMALY   = 155.8754

EPHEMERIS_TYPE = 0
CLASSIFICATION_TYPE = U
NORAD_CAT_ID   = 25544
ELEMENT_SET_NO = 999
REV_AT_EPOCH   = 55767
BSTAR          = .1519E-3
MEAN_MOTION_DOT = .7746E-4
MEAN_MOTION_DDOT = 0

CCSDS_OMM_VERS = 2.0
CREATION_DATE  = 
ORIGINATOR     = 

OBJECT_NAME    = CZ-4B R/B
OBJECT_ID      = 1999-025C
CENTER_NAME    = EARTH
REF_FRAME      = TEME
TIME_SYSTEM    = UTC
MEAN_ELEMENT_THEORY = SGP/SGP4

EPOCH          = 2026-03-18T13:47:32.338176
MEAN_MOTION    = 14.18267128
ECCENTRICITY   = .0036311
INCLINATION    = 98.6607
RA_OF_ASC_NODE = 121.6450
ARG_OF_PERICENTER = 320.6960
MEAN_ANOMALY   = 203.2121

EPHEMERIS_TYPE = 0
CLASSIFICATION_TYPE = U
NORAD_CAT_ID   = 25732
ELEMENT_SET_NO = 999
REV_AT_EPOCH   = 38942
BSTAR          = .40102E-4
MEAN_MOTION_DOT = .4E-6
MEAN_MOTION_DDOT = 0

CCSDS_OMM_VERS = 2.0
CREATION_DATE  = 
ORIGINATOR     = 

OBJECT_NAME    = OKEAN-O
OBJECT_ID      = 1999-039A
CENTER_NAME    = EARTH
REF_FRAME      = TEME
TIME_SYSTEM    = UTC
MEAN_ELEMENT_THEORY = SGP/SGP4

EPOCH          = 2026-03-18T10:32:15.505440
MEAN_MOTION    = 14.80349723
ECCENTRICITY   = .0001027
INCLINATION    = 97.9423
RA_OF_ASC_NODE = 137.2409
ARG_OF_PERICENTER = 75.1697
MEAN_ANOMALY   = 284.9629

EPHEMERIS_TYPE = 0
CLASSIFICATION_TYPE = U
NORAD_CAT_ID   = 25860
ELEMENT_SET_NO = 999
REV_AT_EPOCH   = 43568
BSTAR          = .91542E-4
MEAN_MOTION_DOT = .646E-5
MEAN_MOTION_DDOT = 0

CCSDS_OMM_VERS = 2.0
CREATION_DATE  = 
ORIGINATOR     = 

OBJECT_NAME    = SL-16 R/B
OBJECT_ID      = 1999-039B
CENTER_NAME    = EARTH
REF_FRAME      = TEME
TIME_SYSTEM    = UTC
MEAN_ELEMENT_THEORY = SGP/SGP4

EPOCH          = 2026-03-18T09:51:24.564672
MEAN_MOTION    = 14.81743581
ECCENTRICITY   = .0013821
INCLINATION    = 97.9946
RA_OF_ASC_NODE = 136.4936
ARG_OF_PERICENTER = 225.4245
MEAN_ANOMALY   = 134.5840

EPHEMERIS_TYPE = 0
CLASSIFICATION_TYPE = U
NORAD_CAT_ID   = 25861
ELEMENT_SET_NO = 999
REV_AT_EPOCH   = 43815
BSTAR          = .7611E-4
MEAN_MOTION_DOT = .547E-5
MEAN_MOTION_DDOT = 0

CCSDS_OMM_VERS = 2.0
CREATION_DATE  = 
ORIGINATOR     = 

OBJECT_NAME    = DELTA 2 R/B
OBJECT_ID      = 1999-041E
CENTER_NAME    = EARTH
REF_FRAME      = TEME
TIME_SYSTEM    = UTC
MEAN_ELEMENT_THEORY = SGP/SGP4

EPOCH          = 2026-03-18T12:04:30.215136
MEAN_MOTION    = 14.11862228
ECCENTRICITY   = .050258
INCLINATION    = 51.7610
RA_OF_ASC_NODE = 266.0749
ARG_OF_PERICENTER = 14.4288
MEAN_ANOMALY   = 347.0412

EPHEMERIS_TYPE = 0
CLASSIFICATION_TYPE = U
NORAD_CAT_ID   = 25876
ELEMENT_SET_NO = 999
REV_AT_EPOCH   = 36427
BSTAR          = .15028E-3
MEAN_MOTION_DOT = .69E-5
MEAN_MOTION_DDOT = 0

CCSDS_OMM_VERS = 2.0
CREATION_DATE  = 
ORIGINATOR     = 

OBJECT_NAME    = HELIOS 1B
OBJECT_ID      = 1999-064A
CENTER_NAME    = EARTH
REF_FRAME      = TEME
TIME_SYSTEM    = UTC
MEAN_ELEMENT_THEORY = SGP/SGP4

EPOCH          = 2026-03-18T10:58:38.568576
MEAN_MOTION    = 14.87733386
ECCENTRICITY   = .0002271
INCLINATION    = 98.1687
RA_OF_ASC_NODE = 339.9581
ARG_OF_PERICENTER = 62.7111
MEAN_ANOMALY   = 297.4335

EPHEMERIS_TYPE = 0
CLASSIFICATION_TYPE = U
NORAD_CAT_ID   = 25977
ELEMENT_SET_NO = 999
REV_AT_EPOCH   = 68656
BSTAR          = .18112E-3
MEAN_MOTION_DOT = .1593E-4
MEAN_MOTION_DDOT = 0

CCSDS_OMM_VERS = 2.0
CREATION_DATE  = 
ORIGINATOR     = 

OBJECT_NAME    = TERRA
OBJECT_ID      = 1999-068A
CENTER_NAME    = EARTH
REF_FRAME      = TEME
TIME_SYSTEM    = UTC
MEAN_ELEMENT_THEORY = SGP/SGP4

EPOCH          = 2026-03-18T11:46:20.959104
MEAN_MOTION    = 14.61023976
ECCENTRICITY   = .0003212
INCLINATION    = 97.9575
RA_OF_ASC_NODE = 130.5883
ARG_OF_PERICENTER = 132.3864
MEAN_ANOMALY   = 336.2440

EPHEMERIS_TYPE = 0
CLASSIFICATION_TYPE = U
NORAD_CAT_ID   = 25994
ELEMENT_SET_NO = 999
REV_AT_EPOCH   = 39636
BSTAR          = .86858E-4
MEAN_MOTION_DOT = .382E-5
MEAN_MOTION_DDOT = 0

CCSDS_OMM_VERS = 2.0
CREATION_DATE  = 
ORIGINATOR     = 

OBJECT_NAME    = SL-16 R/B
OBJECT_ID      = 2000-006B
CENTER_NAME    = EARTH
REF_FRAME      = TEME
TIME_SYSTEM    = UTC
MEAN_ELEMENT_THEORY = SGP/SGP4

EPOCH          = 2026-03-18T10:04:46.615008
MEAN_MOTION    = 14.15823842
ECCENTRICITY   = .001629
INCLINATION    = 71.0003
RA_OF_ASC_NODE = 79.4786
ARG_OF_PERICENTER = 176.6543
MEAN_ANOMALY   = 183.4692

EPHEMERIS_TYPE = 0
CLASSIFICATION_TYPE = U
NORAD_CAT_ID   = 26070
ELEMENT_SET_NO = 999
REV_AT_EPOCH   = 34979
BSTAR          = -.51578E-4
MEAN_MOTION_DOT = -.149E-5
MEAN_MOTION_DDOT = 0

CCSDS_OMM_VERS = 2.0
CREATION_DATE  = 
ORIGINATOR     = 

OBJECT_NAME    = TITAN 4B R/B
OBJECT_ID      = 2000-047B
CENTER_NAME    = EARTH
REF_FRAME      = TEME
TIME_SYSTEM    = UTC
MEAN_ELEMENT_THEORY = SGP/SGP4

EPOCH          = 2026-03-18T10:36:57.468384
MEAN_MOTION    = 15.09648496
ECCENTRICITY   = .0038953
INCLINATION    = 67.9911
RA_OF_ASC_NODE = 15.8966
ARG_OF_PERICENTER = 25.0077
MEAN_ANOMALY   = 335.2948

EPHEMERIS_TYPE = 0
CLASSIFICATION_TYPE = U
NORAD_CAT_ID   = 26474
ELEMENT_SET_NO = 999
REV_AT_EPOCH   = 39423
BSTAR          = .23417E-3
MEAN_MOTION_DOT = .3708E-4
MEAN_MOTION_DDOT = 0

CCSDS_OMM_VERS = 2.0
CREATION_DATE  = 
ORIGINATOR     = 

OBJECT_NAME    = ENVISAT
OBJECT_ID      = 2002-009A
CENTER_NAME    = EARTH
REF_FRAME      = TEME
TIME_SYSTEM    = UTC
MEAN_ELEMENT_THEORY = SGP/SGP4

EPOCH          = 2026-03-18T10:51:20.265696
MEAN_MOTION    = 14.39040081
ECCENTRICITY   = .0001304
INCLINATION    = 98.3743
RA_OF_ASC_NODE = 30.8417
ARG_OF_PERICENTER = 82.3600
MEAN_ANOMALY   = 29.7744

EPHEMERIS_TYPE = 0
CLASSIFICATION_TYPE = U
NORAD_CAT_ID   = 27386
ELEMENT_SET_NO = 999
REV_AT_EPOCH   = 26043
BSTAR          = .48066E-4
MEAN_MOTION_DOT = .106E-5
MEAN_MOTION_DDOT = 0

CCSDS_OMM_VERS = 2.0
CREATION_DATE  = 
ORIGINATOR     = 

OBJECT_NAME    = IDEFIX & ARIANE 42P R/B
OBJECT_ID      = 2002-021B
CENTER_NAME    = EARTH
REF_FRAME      = TEME
TIME_SYSTEM    = UTC
MEAN_ELEMENT_THEORY = SGP/SGP4

EPOCH          = 2026-03-18T07:20:17.662272
MEAN_MOTION    = 14.31032071
ECCENTRICITY   = .0012074
INCLINATION    = 98.5880
RA_OF_ASC_NODE = 15.8095
ARG_OF_PERICENTER = 156.9215
MEAN_ANOMALY   = 203.2513

EPHEMERIS_TYPE = 0
CLASSIFICATION_TYPE = U
NORAD_CAT_ID   = 27422
ELEMENT_SET_NO = 999
REV_AT_EPOCH   = 24525
BSTAR          = .11211E-3
MEAN_MOTION_DOT = .252E-5
MEAN_MOTION_DDOT = 0

